{
    "links": {
        "self": "http://www.neowsapp.com/rest/v1/neo/54016813?api_key=iIulBulltgU6a56xZRHN4H3l9WmuAYTsLGpBGhQ2"
    },
    "id": "54016813",
    "neo_reference_id": "54016813",
    "name": "(2020 HN8)",
    "designation": "2020 HN8",
    "nasa_jpl_url": "http://ssd.jpl.nasa.gov/sbdb.cgi?sstr=54016813",
    "absolute_magnitude_h": 23.799,
    "estimated_diameter": {
        "kilometers": {
            "estimated_diameter_min": 0.0462120226,
            "estimated_diameter_max": 0.1033332238
        },
        "meters": {
            "estimated_diameter_min": 46.2120225515,
            "estimated_diameter_max": 103.333223803
        },
        "miles": {
            "estimated_diameter_min": 0.0287148107,
            "estimated_diameter_max": 0.0642082686
        },
        "feet": {
            "estimated_diameter_min": 151.614252068,
            "estimated_diameter_max": 339.0197739818
        }
    },
    "is_potentially_hazardous_asteroid": false,
    "close_approach_data": [
        {
            "close_approach_date": "2020-04-21",
            "close_approach_date_full": "2020-Apr-21 02:54",
            "epoch_date_close_approach": 1587437640000,
            "relative_velocity": {
                "kilometers_per_second": "9.8592451635",
                "kilometers_per_hour": "35493.2825886255",
                "miles_per_hour": "22054.145506249"
            },
            "miss_distance": {
                "astronomical": "0.2519270859",
                "lunar": "97.9996364151",
                "kilometers": "37687755.445947033",
                "miles": "23418085.3230657354"
            },
            "orbiting_body": "Earth"
        }
    ],
    "orbital_data": {
        "orbit_id": "1",
        "orbit_determination_date": "2020-04-28 18:12:14",
        "first_observation_date": "2020-04-19",
        "last_observation_date": "2020-04-26",
        "data_arc_in_days": 7,
        "observations_used": 12,
        "orbit_uncertainty": "8",
        "minimum_orbit_intersection": ".248534",
        "jupiter_tisserand_invariant": "4.095",
        "epoch_osculation": "2458962.5",
        "eccentricity": ".2662571618757599",
        "semi_major_axis": "1.704967723796392",
        "inclination": "19.05466624278086",
        "ascending_node_longitude": "31.40681624794839",
        "orbital_period": "813.1537510806392",
        "perihelion_distance": "1.25100785656859",
        "perihelion_argument": "171.3486681569956",
        "aphelion_distance": "2.158927591024193",
        "perihelion_time": "2458947.944800457631",
        "mean_anomaly": "6.443888167876397",
        "mean_motion": ".4427207025996974",
        "equinox": "J2000",
        "orbit_class": {
            "orbit_class_type": "AMO",
            "orbit_class_description": "Near-Earth asteroid orbits similar to that of 1221 Amor",
            "orbit_class_range": "1.017 AU < q (perihelion) < 1.3 AU"
        }
    },
    "is_sentry_object": false
}